{
  "type": "FeatureCollection",
  "features": [
    {
      "type": "Feature",
      "properties": {
        "norad_id": 31165,
        "name": "FENGYUN 1C DEB",
        "group": "fengyun-1c-debris",
        "lat": -41.849865713721606,
        "lon": 48.58487288211129,
        "alt_km": 644.2732498212945,
        "timestamp": "2025-12-07T05:38:10.184845+00:00",
        "meta_object_name": "FENGYUN 1C DEB",
        "meta_object_id": "1999-025BHT",
        "meta_epoch": "2025-12-06T15:49:46.530048",
        "meta_mean_motion": 14.70908546,
        "meta_eccentricity": 0.00691791,
        "meta_inclination": 98.8856,
        "meta_ra_of_asc_node": 39.9031,
        "meta_arg_of_pericenter": 253.8566,
        "meta_mean_anomaly": 258.5845,
        "meta_ephemeris_type": 0,
        "meta_classification_type": "U",
        "meta_norad_cat_id": 31165,
        "meta_element_set_no": 999,
        "meta_rev_at_epoch": 98665,
        "meta_bstar": 0.002148643,
        "meta_mean_motion_dot": 0.00013614,
        "meta_mean_motion_ddot": 0,
        "tle_line1": "1 31165U 99025BHT 25340.65956632  .00013614  00000+0  21486-2 0  9994",
        "tle_line2": "2 31165  98.8856  39.9031 0069179 253.8566 258.5845 14.70908546986659"
      },
      "geometry": {
        "type": "Point",
        "coordinates": [
          48.58487288211129,
          -41.849865713721606
        ]
      }
    },
    {
      "type": "Feature",
      "properties": {
        "norad_id": 31168,
        "name": "FENGYUN 1C DEB",
        "group": "fengyun-1c-debris",
        "lat": -64.1286746609969,
        "lon": 130.84470716115712,
        "alt_km": 740.3871097255296,
        "timestamp": "2025-12-07T05:38:10.184855+00:00",
        "meta_object_name": "FENGYUN 1C DEB",
        "meta_object_id": "1999-025BHW",
        "meta_epoch": "2025-12-06T15:12:26.518464",
        "meta_mean_motion": 14.67270451,
        "meta_eccentricity": 0.01088473,
        "meta_inclination": 98.8899,
        "meta_ra_of_asc_node": 111.3636,
        "meta_arg_of_pericenter": 82.4329,
        "meta_mean_anomaly": 278.9221,
        "meta_ephemeris_type": 0,
        "meta_classification_type": "U",
        "meta_norad_cat_id": 31168,
        "meta_element_set_no": 999,
        "meta_rev_at_epoch": 99031,
        "meta_bstar": 0.0012649004,
        "meta_mean_motion_dot": 7.741e-05,
        "meta_mean_motion_ddot": 0,
        "tle_line1": "1 31168U 99025BHW 25340.63364026  .00007741  00000+0  12649-2 0  9990",
        "tle_line2": "2 31168  98.8899 111.3636 0108847  82.4329 278.9221 14.67270451990319"
      },
      "geometry": {
        "type": "Point",
        "coordinates": [
          130.84470716115712,
          -64.1286746609969
        ]
      }
    },
    {
      "type": "Feature",
      "properties": {
        "norad_id": 31169,
        "name": "FENGYUN 1C DEB",
        "group": "fengyun-1c-debris",
        "lat": -61.268774606444396,
        "lon": 170.304819213088,
        "alt_km": 847.5508757270554,
        "timestamp": "2025-12-07T05:38:10.184865+00:00",
        "meta_object_name": "FENGYUN 1C DEB",
        "meta_object_id": "1999-025BHX",
        "meta_epoch": "2025-12-03T19:41:29.870304",
        "meta_mean_motion": 14.26310452,
        "meta_eccentricity": 0.005813,
        "meta_inclination": 99.1573,
        "meta_ra_of_asc_node": 3.8489,
        "meta_arg_of_pericenter": 43.7006,
        "meta_mean_anomaly": 316.8753,
        "meta_ephemeris_type": 0,
        "meta_classification_type": "U",
        "meta_norad_cat_id": 31169,
        "meta_element_set_no": 999,
        "meta_rev_at_epoch": 56977,
        "meta_bstar": 0.003791,
        "meta_mean_motion_dot": 9.228e-05,
        "meta_mean_motion_ddot": 0,
        "tle_line1": "1 31169U 99025BHX 25337.82048461  .00009228  00000+0  37910-2 0  9990",
        "tle_line2": "2 31169  99.1573   3.8489 0058130  43.7006 316.8753 14.26310452569770"
      },
      "geometry": {
        "type": "Point",
        "coordinates": [
          170.304819213088,
          -61.268774606444396
        ]
      }
    },
    {
      "type": "Feature",
      "properties": {
        "norad_id": 31171,
        "name": "FENGYUN 1C DEB",
        "group": "fengyun-1c-debris",
        "lat": 6.984560842710179,
        "lon": 152.2866809618383,
        "alt_km": 883.0366109395536,
        "timestamp": "2025-12-07T05:38:10.184875+00:00",
        "meta_object_name": "FENGYUN 1C DEB",
        "meta_object_id": "1999-025BHZ",
        "meta_epoch": "2025-12-06T11:07:26.742144",
        "meta_mean_motion": 14.345202,
        "meta_eccentricity": 0.0155441,
        "meta_inclination": 98.0154,
        "meta_ra_of_asc_node": 330.5815,
        "meta_arg_of_pericenter": 335.5193,
        "meta_mean_anomaly": 176.7826,
        "meta_ephemeris_type": 0,
        "meta_classification_type": "U",
        "meta_norad_cat_id": 31171,
        "meta_element_set_no": 999,
        "meta_rev_at_epoch": 95740,
        "meta_bstar": 0.0093140831,
        "meta_mean_motion_dot": 0.00030181,
        "meta_mean_motion_ddot": 0,
        "tle_line1": "1 31171U 99025BHZ 25340.46350396  .00030181  00000+0  93141-2 0  9990",
        "tle_line2": "2 31171  98.0154 330.5815 0155441 335.5193 176.7826 14.34520200957409"
      },
      "geometry": {
        "type": "Point",
        "coordinates": [
          152.2866809618383,
          6.984560842710179
        ]
      }
    },
    {
      "type": "Feature",
      "properties": {
        "norad_id": 31172,
        "name": "FENGYUN 1C DEB",
        "group": "fengyun-1c-debris",
        "lat": 45.9547388990418,
        "lon": 174.68455145630745,
        "alt_km": 875.7417926570088,
        "timestamp": "2025-12-07T05:38:10.184885+00:00",
        "meta_object_name": "FENGYUN 1C DEB",
        "meta_object_id": "1999-025BJA",
        "meta_epoch": "2025-12-06T07:11:46.987296",
        "meta_mean_motion": 14.31503344,
        "meta_eccentricity": 0.01481307,
        "meta_inclination": 98.4249,
        "meta_ra_of_asc_node": 344.9629,
        "meta_arg_of_pericenter": 287.7366,
        "meta_mean_anomaly": 70.7698,
        "meta_ephemeris_type": 0,
        "meta_classification_type": "U",
        "meta_norad_cat_id": 31172,
        "meta_element_set_no": 999,
        "meta_rev_at_epoch": 97534,
        "meta_bstar": 0.00031980339,
        "meta_mean_motion_dot": 9.12e-06,
        "meta_mean_motion_ddot": 0,
        "tle_line1": "1 31172U 99025BJA 25340.29984939  .00000912  00000+0  31980-3 0  9991",
        "tle_line2": "2 31172  98.4249 344.9629 0148130 287.7366  70.7698 14.31503344975348"
      },
      "geometry": {
        "type": "Point",
        "coordinates": [
          174.68455145630745,
          45.9547388990418
        ]
      }
    },
    {
      "type": "Feature",
      "properties": {
        "norad_id": 31175,
        "name": "FENGYUN 1C DEB",
        "group": "fengyun-1c-debris",
        "lat": -14.566479843515225,
        "lon": 159.13573638749875,
        "alt_km": 648.6678119469052,
        "timestamp": "2025-12-07T05:38:10.184896+00:00",
        "meta_object_name": "FENGYUN 1C DEB",
        "meta_object_id": "1999-025BJD",
        "meta_epoch": "2025-12-06T05:42:56.384640",
        "meta_mean_motion": 14.59668423,
        "meta_eccentricity": 0.00719012,
        "meta_inclination": 98.3958,
        "meta_ra_of_asc_node": 340.3266,
        "meta_arg_of_pericenter": 187.2725,
        "meta_mean_anomaly": 172.7438,
        "meta_ephemeris_type": 0,
        "meta_classification_type": "U",
        "meta_norad_cat_id": 31175,
        "meta_element_set_no": 999,
        "meta_rev_at_epoch": 65544,
        "meta_bstar": 0.0075853788,
        "meta_mean_motion_dot": 0.00037608,
        "meta_mean_motion_ddot": 0,
        "tle_line1": "1 31175U 99025BJD 25340.23815260  .00037608  00000+0  75854-2 0  9997",
        "tle_line2": "2 31175  98.3958 340.3266 0071901 187.2725 172.7438 14.59668423655449"
      },
      "geometry": {
        "type": "Point",
        "coordinates": [
          159.13573638749875,
          -14.566479843515225
        ]
      }
    },
    {
      "type": "Feature",
      "properties": {
        "norad_id": 31177,
        "name": "FENGYUN 1C DEB",
        "group": "fengyun-1c-debris",
        "lat": -49.63172888095153,
        "lon": -94.33107084061879,
        "alt_km": 814.8399143559818,
        "timestamp": "2025-12-07T05:38:10.184906+00:00",
        "meta_object_name": "FENGYUN 1C DEB",
        "meta_object_id": "1999-025BJF",
        "meta_epoch": "2025-12-01T06:04:03.773280",
        "meta_mean_motion": 13.62101426,
        "meta_eccentricity": 0.0311511,
        "meta_inclination": 98.7576,
        "meta_ra_of_asc_node": 249.8401,
        "meta_arg_of_pericenter": 343.5186,
        "meta_mean_anomaly": 168.581,
        "meta_ephemeris_type": 0,
        "meta_classification_type": "U",
        "meta_norad_cat_id": 31177,
        "meta_element_set_no": 999,
        "meta_rev_at_epoch": 66055,
        "meta_bstar": 0.0077346,
        "meta_mean_motion_dot": 8.228e-05,
        "meta_mean_motion_ddot": 0,
        "tle_line1": "1 31177U 99025BJF 25335.25282145  .00008228  00000+0  77346-2 0  9999",
        "tle_line2": "2 31177  98.7576 249.8401 0311511 343.5186 168.5810 13.62101426660550"
      },
      "geometry": {
        "type": "Point",
        "coordinates": [
          -94.33107084061879,
          -49.63172888095153
        ]
      }
    }
  ]
}